     2.11           N: GPS NAV DATA                         RINEX VERSION / TYPE
NetR9 5.37          Receiver Operator   10-APR-19 00:00:01  PGM / RUN BY / DATE
     .1118D-07   .1490D-07  -.5960D-07  -.5960D-07          ION ALPHA
     .8806D+05   .1638D+05  -.1966D+06  -.1311D+06          ION BETA
    -.372529029846D-08 -.621724893790D-14   503808     2048 DELTA-UTC: A0,A1,T,W
    18                                                      LEAP SECONDS
                                                            END OF HEADER
 1 19  4 10  2  0  0.0 -.198496971279D-03 -.807176547823D-11  .000000000000D+00
     .690000000000D+02 -.310312500000D+02  .407695553585D-08  .264307016689D+01
    -.169686973095D-05  .863176246639D-02  .101216137409D-04  .515366104698D+04
     .266400000000D+06 -.577419996262D-07 -.210293822457D+01 -.143423676491D-06
     .974915508161D+00  .191937500000D+03  .686769954200D+00 -.760960268478D-08
     .316798910232D-09  .100000000000D+01  .204800000000D+04  .000000000000D+00
     .200000000000D+01  .000000000000D+00  .558793544769D-08  .690000000000D+02
     .259218000000D+06  .400000000000D+01
23 19  4 10  2  0  0.0 -.190801452845D-03  .147792889038D-11  .000000000000D+00
     .980000000000D+02 -.210625000000D+02  .487020286350D-08 -.288128953499D+01
    -.123493373394D-05  .130643091397D-01  .870414078236D-05  .515360808372D+04
     .266400000000D+06  .614672899246D-07 -.324969930359D-01 -.195577740669D-06
     .943736515077D+00  .200281250000D+03 -.227696355215D+01 -.799283293357D-08
    -.410374236591D-09  .100000000000D+01  .204800000000D+04  .000000000000D+00
     .200000000000D+01  .000000000000D+00 -.200234353542D-07  .980000000000D+02
     .259218000000D+06  .400000000000D+01
11 19  4 10  2  0  0.0 -.629431568086D-03  .716227077646D-11  .000000000000D+00
     .620000000000D+02 -.738437500000D+02  .550772941904D-08  .193101924595D+01
    -.395067036152D-05  .165309021249D-01  .860728323460D-05  .515370110703D+04
     .266400000000D+06  .286847352982D-06 -.255061613615D+01 -.856816768646D-07
     .909135172901D+00  .183218750000D+03  .187555414502D+01 -.828141638280D-08
     .257153568621D-10  .100000000000D+01  .204800000000D+04  .000000000000D+00
     .200000000000D+01  .000000000000D+00 -.121071934700D-07  .620000000000D+02
     .259218000000D+06  .400000000000D+01
18 19  4 10  2  0  0.0  .427472405136D-04  .352429196937D-11  .000000000000D+00
     .320000000000D+02 -.420625000000D+02  .450661629009D-08  .239125170544D+01
    -.231713056564D-05  .151644696016D-01  .987015664577D-05  .515371851730D+04
     .266400000000D+06  .150874257088D-06 -.215703258589D+01 -.188127160072D-06
     .953462010560D+00  .181468750000D+03  .138139818645D+01 -.772317884426D-08
     .237152735506D-09  .100000000000D+01  .204800000000D+04  .000000000000D+00
     .200000000000D+01  .000000000000D+00 -.605359673500D-08  .320000000000D+02
     .259218000000D+06  .400000000000D+01
32 19  4 10  2  0  0.0 -.139900017530D-03  .178488335223D-10  .000000000000D+00
     .182000000000D+03 -.140937500000D+02  .472591113888D-08 -.831384544103D+00
    -.866129994392D-06  .289038626943D-02  .844895839691D-05  .515357120895D+04
     .266400000000D+06  .949949026108D-07 -.213656405933D-01  .558793544769D-07
     .957203249460D+00  .216937500000D+03 -.254091034618D+01 -.809783730743D-08
    -.526093342471D-09  .100000000000D+01  .204800000000D+04  .000000000000D+00
     .570000000000D+01  .000000000000D+00  .465661287308D-09  .182000000000D+03
     .259218000000D+06  .400000000000D+01
14 19  4 10  2  0  0.0 -.850870274007D-04  .147792889038D-11  .000000000000D+00
     .730000000000D+02 -.746875000000D+01  .451018786743D-08 -.171411376772D+01
    -.409781932831D-06  .104229266290D-01  .880286097527D-05  .515368269539D+04
     .266400000000D+06  .286847352982D-06  .645390565850D-01  .298023223877D-07
     .961004090569D+00  .210625000000D+03 -.194580942526D+01 -.784925552443D-08
    -.506092509356D-09  .100000000000D+01  .204800000000D+04  .000000000000D+00
     .200000000000D+01  .000000000000D+00 -.977888703346D-08  .730000000000D+02
     .259218000000D+06  .400000000000D+01
19 19  4 10  2  0  0.0 -.332463998348D-03  .443378667114D-11  .000000000000D+00
     .590000000000D+02 -.939062500000D+02  .414981571362D-08  .127625743754D+01
    -.498257577419D-05  .949889421463D-02  .745430588722D-05  .515363313866D+04
     .266400000000D+06 -.242143869400D-06 -.305588246015D+01 -.949949026108D-07
     .982101187679D+00  .250687500000D+03  .137085775489D+01 -.802354849872D-08
    -.140362989539D-09  .100000000000D+01  .204800000000D+04  .000000000000D+00
     .200000000000D+01  .000000000000D+00 -.153668224812D-07  .590000000000D+02
     .259218000000D+06  .400000000000D+01
 9 19  4 10  2  0  0.0  .431418884546D-03 -.636646291241D-11  .000000000000D+00
     .990000000000D+02 -.144375000000D+02  .475805533496D-08 -.116427492799D+01
    -.787898898125D-06  .132265128195D-02  .867061316967D-05  .515370169258D+04
     .266400000000D+06 -.596046447754D-07 -.278446326636D-01  .335276126862D-07
     .952925889120D+00  .207593750000D+03  .175559673213D+01 -.811176645906D-08
    -.477162732886D-09  .100000000000D+01  .204800000000D+04  .000000000000D+00
     .280000000000D+01  .000000000000D+00  .139698386192D-08  .990000000000D+02
     .259506000000D+06  .400000000000D+01
 6 19  4 10  2  0  0.0  .234596896917D-03 -.932232069317D-11  .000000000000D+00
     .780000000000D+02 -.353750000000D+02  .418088843650D-08  .282437263562D+01
    -.162608921528D-05  .161368236877D-02  .106506049633D-04  .515356371307D+04
     .266400000000D+06  .540167093277D-07 -.211121957268D+01  .223517417908D-07
     .974578484020D+00  .180531250000D+03 -.111763892242D+01 -.778068123946D-08
     .292155026572D-09  .100000000000D+01  .204800000000D+04  .000000000000D+00
     .200000000000D+01  .000000000000D+00  .465661287308D-08  .780000000000D+02
     .260562000000D+06  .400000000000D+01
 9 19  4 10  1 59 44.0  .431420281529D-03 -.636646291241D-11  .000000000000D+00
     .300000000000D+01 -.144375000000D+02  .475805533496D-08 -.116660198447D+01
    -.786036252975D-06  .132265361026D-02  .867247581482D-05  .515370169067D+04
     .266384000000D+06 -.596046447754D-07 -.278445024639D-01  .335276126862D-07
     .952925899360D+00  .207593750000D+03  .175559005684D+01 -.811176645906D-08
    -.477162732886D-09  .100000000000D+01  .204800000000D+04  .000000000000D+00
     .200000000000D+01  .000000000000D+00  .139698386192D-08  .300000000000D+01
     .264858000000D+06  .400000000000D+01
 2 19  4 10  2  0  0.0 -.185161363333D-03 -.943600753089D-11  .000000000000D+00
     .530000000000D+02 -.458437500000D+02  .446875757026D-08  .292995082776D+01
    -.228174030781D-05  .188984768465D-01  .107232481241D-04  .515369238853D+04
     .266400000000D+06  .240281224251D-06 -.217069178031D+01 -.219792127609D-06
     .954063231855D+00  .161312500000D+03 -.175099037907D+01 -.768389149349D-08
     .220366321999D-09  .100000000000D+01  .204800000000D+04  .000000000000D+00
     .200000000000D+01  .000000000000D+00 -.204890966415D-07  .530000000000D+02
     .265602000000D+06  .400000000000D+01
 7 19  4 10  2  0  0.0 -.179046764970D-05 -.738964445191D-11  .000000000000D+00
     .890000000000D+02  .840937500000D+02  .436482466961D-08  .204260309277D+01
     .432319939137D-05  .124412331497D-01  .949949026108D-05  .515360475159D+04
     .266400000000D+06 -.270083546638D-06  .104810685036D+01 -.949949026108D-07
     .955893933391D+00  .194750000000D+03 -.247189118051D+01 -.797997525514D-08
     .185722021782D-10  .100000000000D+01  .204800000000D+04  .000000000000D+00
     .200000000000D+01  .000000000000D+00 -.111758708954D-07  .890000000000D+02
     .265626000000D+06  .400000000000D+01
17 19  4 10  1 59 44.0  .366992317140D-04  .591171556152D-11  .000000000000D+00
     .200000000000D+02 -.865937500000D+02  .411767151755D-08 -.154176676560D+01
    -.421144068241D-05  .128725623945D-01  .697374343872D-05  .515372444725D+04
     .266384000000D+06  .577419996262D-07 -.310219800766D+01  .299885869026D-06
     .984303223174D+00  .255281250000D+03 -.171351489587D+01 -.786675625340D-08
    -.133934150324D-09  .100000000000D+01  .204800000000D+04  .000000000000D+00
     .200000000000D+01  .000000000000D+00 -.111758708954D-07  .200000000000D+02
     .265956000000D+06  .400000000000D+01
 3 19  4 10  4  0  0.0  .188074540347D-03  .454747350886D-12  .000000000000D+00
     .740000000000D+02  .521875000000D+01  .477341311753D-08  .278407617384D+01
     .180676579475D-06  .197326962370D-02  .662356615067D-05  .515353902245D+04
     .273600000000D+06 -.484287738800D-07 -.106022627815D+01 -.558793544769D-07
     .962387583900D+00  .250531250000D+03  .568062048899D+00 -.805604985253D-08
     .177150236161D-09  .100000000000D+01  .204800000000D+04  .000000000000D+00
     .200000000000D+01  .000000000000D+00  .232830643654D-08  .740000000000D+02
     .266418000000D+06  .400000000000D+01
17 19  4 10  3 59 44.0  .367420725524D-04  .591171556152D-11  .000000000000D+00
     .230000000000D+02 -.776875000000D+02  .409017037201D-08 -.491486836742D+00
    -.412948429585D-05  .128734904574D-01  .680238008499D-05  .515372817421D+04
     .273584000000D+06 -.162050127983D-06 -.310225651414D+01  .540167093277D-07
     .984301259938D+00  .266156250000D+03 -.171364876312D+01 -.816534011919D-08
    -.560737642688D-10  .100000000000D+01  .204800000000D+04  .000000000000D+00
     .200000000000D+01  .000000000000D+00 -.111758708954D-07  .230000000000D+02
     .266418000000D+06  .400000000000D+01
